{
  "type": "FeatureCollection",
  "features": [
    {
      "type": "Feature",
      "properties": {
        "norad_id": 34420,
        "name": "COSMOS 2251 DEB",
        "group": "cosmos-2251-debris",
        "lat": 68.41843229520161,
        "lon": 152.02592539067336,
        "alt_km": 725.4965445594917,
        "timestamp": "2025-12-11T20:41:15.475283+00:00",
        "meta_object_name": "COSMOS 2251 DEB",
        "meta_object_id": "1993-036RM",
        "meta_epoch": "2025-12-11T10:53:06.508320",
        "meta_mean_motion": 14.68292467,
        "meta_eccentricity": 0.01066915,
        "meta_inclination": 74.0336,
        "meta_ra_of_asc_node": 106.4469,
        "meta_arg_of_pericenter": 227.8869,
        "meta_mean_anomaly": 209.9756,
        "meta_ephemeris_type": 0,
        "meta_classification_type": "U",
        "meta_norad_cat_id": 34420,
        "meta_element_set_no": 999,
        "meta_rev_at_epoch": 89751,
        "meta_bstar": 0.00043711453,
        "meta_mean_motion_dot": 2.715e-05,
        "meta_mean_motion_ddot": 0,
        "tle_line1": "1 34420U 93036RM  25345.45354755  .00002715  00000+0  43711-3 0  9994",
        "tle_line2": "2 34420  74.0336 106.4469 0106691 227.8869 209.9756 14.68292467897510"
      },
      "geometry": {
        "type": "Point",
        "coordinates": [
          152.02592539067336,
          68.41843229520161
        ]
      }
    },
    {
      "type": "Feature",
      "properties": {
        "norad_id": 34425,
        "name": "COSMOS 2251 DEB",
        "group": "cosmos-2251-debris",
        "lat": -2.7745671386422743,
        "lon": -123.00542140338318,
        "alt_km": 671.7290174448008,
        "timestamp": "2025-12-11T20:41:15.475293+00:00",
        "meta_object_name": "COSMOS 2251 DEB",
        "meta_object_id": "1993-036RS",
        "meta_epoch": "2025-12-11T14:55:40.822464",
        "meta_mean_motion": 14.62119069,
        "meta_eccentricity": 0.00249107,
        "meta_inclination": 74.0201,
        "meta_ra_of_asc_node": 56.6586,
        "meta_arg_of_pericenter": 183.4495,
        "meta_mean_anomaly": 176.6504,
        "meta_ephemeris_type": 0,
        "meta_classification_type": "U",
        "meta_norad_cat_id": 34425,
        "meta_element_set_no": 999,
        "meta_rev_at_epoch": 88724,
        "meta_bstar": 0.0009325549,
        "meta_mean_motion_dot": 4.682e-05,
        "meta_mean_motion_ddot": 0,
        "tle_line1": "1 34425U 93036RS  25345.62200026  .00004682  00000+0  93255-3 0  9992",
        "tle_line2": "2 34425  74.0201  56.6586 0024910 183.4495 176.6504 14.62119069887247"
      },
      "geometry": {
        "type": "Point",
        "coordinates": [
          -123.00542140338318,
          -2.7745671386422743
        ]
      }
    },
    {
      "type": "Feature",
      "properties": {
        "norad_id": 34429,
        "name": "COSMOS 2251 DEB",
        "group": "cosmos-2251-debris",
        "lat": -11.183871679270206,
        "lon": 166.6644085567192,
        "alt_km": 442.90384882180297,
        "timestamp": "2025-12-11T20:41:15.475303+00:00",
        "meta_object_name": "COSMOS 2251 DEB",
        "meta_object_id": "1993-036RW",
        "meta_epoch": "2025-12-10T12:08:01.998816",
        "meta_mean_motion": 15.40292779,
        "meta_eccentricity": 0.00067875,
        "meta_inclination": 73.9712,
        "meta_ra_of_asc_node": 172.8672,
        "meta_arg_of_pericenter": 16.6969,
        "meta_mean_anomaly": 12.0165,
        "meta_ephemeris_type": 0,
        "meta_classification_type": "U",
        "meta_norad_cat_id": 34429,
        "meta_element_set_no": 999,
        "meta_rev_at_epoch": 89414,
        "meta_bstar": 0.0065167846,
        "meta_mean_motion_dot": 0.00272351,
        "meta_mean_motion_ddot": 0,
        "tle_line1": "1 34429U 93036RW  25344.50557869  .00272351  00000+0  65168-2 0  9993",
        "tle_line2": "2 34429  73.9712 172.8672 0006787  16.6969  12.0165 15.40292779894148"
      },
      "geometry": {
        "type": "Point",
        "coordinates": [
          166.6644085567192,
          -11.183871679270206
        ]
      }
    },
    {
      "type": "Feature",
      "properties": {
        "norad_id": 34430,
        "name": "COSMOS 2251 DEB",
        "group": "cosmos-2251-debris",
        "lat": 33.88066591449924,
        "lon": -43.94829791466996,
        "alt_km": 716.9237617607587,
        "timestamp": "2025-12-11T20:41:15.475313+00:00",
        "meta_object_name": "COSMOS 2251 DEB",
        "meta_object_id": "1993-036RX",
        "meta_epoch": "2025-12-11T13:51:16.088256",
        "meta_mean_motion": 14.39626846,
        "meta_eccentricity": 0.00602903,
        "meta_inclination": 74.0523,
        "meta_ra_of_asc_node": 305.5069,
        "meta_arg_of_pericenter": 15.4127,
        "meta_mean_anomaly": 344.8845,
        "meta_ephemeris_type": 0,
        "meta_classification_type": "U",
        "meta_norad_cat_id": 34430,
        "meta_element_set_no": 999,
        "meta_rev_at_epoch": 87938,
        "meta_bstar": 0.00083640931,
        "meta_mean_motion_dot": 2.645e-05,
        "meta_mean_motion_ddot": 0,
        "tle_line1": "1 34430U 93036RX  25345.57726954  .00002645  00000+0  83641-3 0  9990",
        "tle_line2": "2 34430  74.0523 305.5069 0060290  15.4127 344.8845 14.39626846879382"
      },
      "geometry": {
        "type": "Point",
        "coordinates": [
          -43.94829791466996,
          33.88066591449924
        ]
      }
    },
    {
      "type": "Feature",
      "properties": {
        "norad_id": 34431,
        "name": "COSMOS 2251 DEB",
        "group": "cosmos-2251-debris",
        "lat": -27.3965021356931,
        "lon": 168.27878671277898,
        "alt_km": 849.3183002606702,
        "timestamp": "2025-12-11T20:41:15.475323+00:00",
        "meta_object_name": "COSMOS 2251 DEB",
        "meta_object_id": "1993-036RY",
        "meta_epoch": "2025-12-11T12:25:14.484000",
        "meta_mean_motion": 14.28767711,
        "meta_eccentricity": 0.00683266,
        "meta_inclination": 74.0746,
        "meta_ra_of_asc_node": 177.4118,
        "meta_arg_of_pericenter": 163.4582,
        "meta_mean_anomaly": 196.882,
        "meta_ephemeris_type": 0,
        "meta_classification_type": "U",
        "meta_norad_cat_id": 34431,
        "meta_element_set_no": 999,
        "meta_rev_at_epoch": 87125,
        "meta_bstar": 0.00098612807,
        "meta_mean_motion_dot": 2.522e-05,
        "meta_mean_motion_ddot": 0,
        "tle_line1": "1 34431U 93036RY  25345.51752875  .00002522  00000+0  98613-3 0  9995",
        "tle_line2": "2 34431  74.0746 177.4118 0068326 163.4582 196.8820 14.28767711871259"
      },
      "geometry": {
        "type": "Point",
        "coordinates": [
          168.27878671277898,
          -27.3965021356931
        ]
      }
    },
    {
      "type": "Feature",
      "properties": {
        "norad_id": 34432,
        "name": "COSMOS 2251 DEB",
        "group": "cosmos-2251-debris",
        "lat": 53.88762410871799,
        "lon": 127.30820515676997,
        "alt_km": 960.9273375689781,
        "timestamp": "2025-12-11T20:41:15.475333+00:00",
        "meta_object_name": "COSMOS 2251 DEB",
        "meta_object_id": "1993-036RZ",
        "meta_epoch": "2025-12-11T10:27:02.840256",
        "meta_mean_motion": 14.02899719,
        "meta_eccentricity": 0.01826275,
        "meta_inclination": 73.8286,
        "meta_ra_of_asc_node": 104.6225,
        "meta_arg_of_pericenter": 187.494,
        "meta_mean_anomaly": 238.0952,
        "meta_ephemeris_type": 0,
        "meta_classification_type": "U",
        "meta_norad_cat_id": 34432,
        "meta_element_set_no": 999,
        "meta_rev_at_epoch": 85666,
        "meta_bstar": 0.0022175295,
        "meta_mean_motion_dot": 3.958e-05,
        "meta_mean_motion_ddot": 0,
        "tle_line1": "1 34432U 93036RZ  25345.43544954  .00003958  00000+0  22175-2 0  9997",
        "tle_line2": "2 34432  73.8286 104.6225 0182627 187.4940 238.0952 14.02899719856661"
      },
      "geometry": {
        "type": "Point",
        "coordinates": [
          127.30820515676997,
          53.88762410871799
        ]
      }
    },
    {
      "type": "Feature",
      "properties": {
        "norad_id": 34433,
        "name": "COSMOS 2251 DEB",
        "group": "cosmos-2251-debris",
        "lat": 50.3369569554892,
        "lon": 176.7280354606948,
        "alt_km": 895.8753597396781,
        "timestamp": "2025-12-11T20:41:15.475342+00:00",
        "meta_object_name": "COSMOS 2251 DEB",
        "meta_object_id": "1993-036SA",
        "meta_epoch": "2025-12-11T11:56:23.103168",
        "meta_mean_motion": 14.12845305,
        "meta_eccentricity": 0.01522652,
        "meta_inclination": 74.0131,
        "meta_ra_of_asc_node": 157.145,
        "meta_arg_of_pericenter": 295.5011,
        "meta_mean_anomaly": 63.0446,
        "meta_ephemeris_type": 0,
        "meta_classification_type": "U",
        "meta_norad_cat_id": 34433,
        "meta_element_set_no": 999,
        "meta_rev_at_epoch": 85932,
        "meta_bstar": 0.0019450711,
        "meta_mean_motion_dot": 4.013e-05,
        "meta_mean_motion_ddot": 0,
        "tle_line1": "1 34433U 93036SA  25345.49748962  .00004013  00000+0  19451-2 0  9995",
        "tle_line2": "2 34433  74.0131 157.1450 0152265 295.5011  63.0446 14.12845305859325"
      },
      "geometry": {
        "type": "Point",
        "coordinates": [
          176.7280354606948,
          50.3369569554892
        ]
      }
    }
  ]
}